[{
    "OBJECT_NAME": "STARLINK-3993",
    "OBJECT_ID": "2022-053AN",
    "EPOCH": "2022-07-20T22:00:01.999584",
    "MEAN_MOTION": 15.38765361,
    "ECCENTRICITY": 0.0001598,
    "INCLINATION": 53.2172,
    "RA_OF_ASC_NODE": 346.0255,
    "ARG_OF_PERICENTER": 45.001,
    "MEAN_ANOMALY": 203.8319,
    "EPHEMERIS_TYPE": 0,
    "CLASSIFICATION_TYPE": "U",
    "NORAD_CAT_ID": 52692,
    "ELEMENT_SET_NO": 999,
    "REV_AT_EPOCH": 130,
    "BSTAR": -0.029914,
    "MEAN_MOTION_DOT": -0.01068746,
    "MEAN_MOTION_DDOT": 0
},{
    "OBJECT_NAME": "STARLINK-3946",
    "OBJECT_ID": "2022-053AP",
    "EPOCH": "2022-07-20T22:00:01.999584",
    "MEAN_MOTION": 15.40241989,
    "ECCENTRICITY": 0.0001481,
    "INCLINATION": 53.2172,
    "RA_OF_ASC_NODE": 346.0681,
    "ARG_OF_PERICENTER": 47.3455,
    "MEAN_ANOMALY": 229.9455,
    "EPHEMERIS_TYPE": 0,
    "CLASSIFICATION_TYPE": "U",
    "NORAD_CAT_ID": 52693,
    "ELEMENT_SET_NO": 999,
    "REV_AT_EPOCH": 130,
    "BSTAR": -0.028513,
    "MEAN_MOTION_DOT": -0.01069599,
    "MEAN_MOTION_DDOT": 0
},{
    "OBJECT_NAME": "STARLINK-4072",
    "OBJECT_ID": "2022-053AQ",
    "EPOCH": "2022-07-20T22:00:01.999584",
    "MEAN_MOTION": 15.39060724,
    "ECCENTRICITY": 0.0001649,
    "INCLINATION": 53.2172,
    "RA_OF_ASC_NODE": 346.0342,
    "ARG_OF_PERICENTER": 41.9046,
    "MEAN_ANOMALY": 212.8952,
    "EPHEMERIS_TYPE": 0,
    "CLASSIFICATION_TYPE": "U",
    "NORAD_CAT_ID": 52694,
    "ELEMENT_SET_NO": 999,
    "REV_AT_EPOCH": 130,
    "BSTAR": -0.029631,
    "MEAN_MOTION_DOT": -0.01068983,
    "MEAN_MOTION_DDOT": 0
},{
    "OBJECT_NAME": "STARLINK-4041",
    "OBJECT_ID": "2022-053AR",
    "EPOCH": "2022-07-20T22:00:01.999584",
    "MEAN_MOTION": 15.16546074,
    "ECCENTRICITY": 0.0001602,
    "INCLINATION": 53.2174,
    "RA_OF_ASC_NODE": 349.6426,
    "ARG_OF_PERICENTER": 43.7274,
    "MEAN_ANOMALY": 264.5333,
    "EPHEMERIS_TYPE": 0,
    "CLASSIFICATION_TYPE": "U",
    "NORAD_CAT_ID": 52695,
    "ELEMENT_SET_NO": 999,
    "REV_AT_EPOCH": 130,
    "BSTAR": -0.058773,
    "MEAN_MOTION_DOT": -0.01074985,
    "MEAN_MOTION_DDOT": 0
},{
    "OBJECT_NAME": "STARLINK-4025",
    "OBJECT_ID": "2022-053AS",
    "EPOCH": "2022-07-20T22:00:01.999584",
    "MEAN_MOTION": 15.38978726,
    "ECCENTRICITY": 0.0001465,
    "INCLINATION": 53.2174,
    "RA_OF_ASC_NODE": 345.9592,
    "ARG_OF_PERICENTER": 43.4011,
    "MEAN_ANOMALY": 275.3788,
    "EPHEMERIS_TYPE": 0,
    "CLASSIFICATION_TYPE": "U",
    "NORAD_CAT_ID": 52696,
    "ELEMENT_SET_NO": 999,
    "REV_AT_EPOCH": 130,
    "BSTAR": -0.029729,
    "MEAN_MOTION_DOT": -0.01069529,
    "MEAN_MOTION_DDOT": 0
},{
    "OBJECT_NAME": "STARLINK-4018",
    "OBJECT_ID": "2022-053AT",
    "EPOCH": "2022-07-20T22:00:01.999584",
    "MEAN_MOTION": 15.14116782,
    "ECCENTRICITY": 0.0001772,
    "INCLINATION": 53.2173,
    "RA_OF_ASC_NODE": 349.747,
    "ARG_OF_PERICENTER": 43.5003,
    "MEAN_ANOMALY": 198.7307,
    "EPHEMERIS_TYPE": 0,
    "CLASSIFICATION_TYPE": "U",
    "NORAD_CAT_ID": 52697,
    "ELEMENT_SET_NO": 999,
    "REV_AT_EPOCH": 130,
    "BSTAR": -0.062878,
    "MEAN_MOTION_DOT": -0.01073239,
    "MEAN_MOTION_DDOT": 0
},{
    "OBJECT_NAME": "STARLINK-4030",
    "OBJECT_ID": "2022-053AU",
    "EPOCH": "2022-07-20T22:00:01.999584",
    "MEAN_MOTION": 15.1323031,
    "ECCENTRICITY": 0.0001813,
    "INCLINATION": 53.2172,
    "RA_OF_ASC_NODE": 349.7434,
    "ARG_OF_PERICENTER": 44.462,
    "MEAN_ANOMALY": 144.5339,
    "EPHEMERIS_TYPE": 0,
    "CLASSIFICATION_TYPE": "U",
    "NORAD_CAT_ID": 52698,
    "ELEMENT_SET_NO": 999,
    "REV_AT_EPOCH": 130,
    "BSTAR": -0.064397,
    "MEAN_MOTION_DOT": -0.01072067,
    "MEAN_MOTION_DDOT": 0
},{
    "OBJECT_NAME": "STARLINK-3987",
    "OBJECT_ID": "2022-053AV",
    "EPOCH": "2022-07-20T22:00:01.999584",
    "MEAN_MOTION": 15.58959785,
    "ECCENTRICITY": 0.0001394,
    "INCLINATION": 53.2171,
    "RA_OF_ASC_NODE": 343.8741,
    "ARG_OF_PERICENTER": 53.3831,
    "MEAN_ANOMALY": 99.145,
    "EPHEMERIS_TYPE": 0,
    "CLASSIFICATION_TYPE": "U",
    "NORAD_CAT_ID": 52699,
    "ELEMENT_SET_NO": 999,
    "REV_AT_EPOCH": 130,
    "BSTAR": -0.014755,
    "MEAN_MOTION_DOT": -0.01062341,
    "MEAN_MOTION_DDOT": 0
},{
    "OBJECT_NAME": "STARLINK-4003",
    "OBJECT_ID": "2022-053AX",
    "EPOCH": "2022-07-20T22:00:01.999584",
    "MEAN_MOTION": 15.73190577,
    "ECCENTRICITY": 0.0003375,
    "INCLINATION": 53.2165,
    "RA_OF_ASC_NODE": 343.6382,
    "ARG_OF_PERICENTER": 11.0206,
    "MEAN_ANOMALY": 303.5815,
    "EPHEMERIS_TYPE": 0,
    "CLASSIFICATION_TYPE": "U",
    "NORAD_CAT_ID": 52701,
    "ELEMENT_SET_NO": 999,
    "REV_AT_EPOCH": 130,
    "BSTAR": -0.00067196,
    "MEAN_MOTION_DOT": -0.0009388,
    "MEAN_MOTION_DDOT": 0
},{
    "OBJECT_NAME": "STARLINK-4033",
    "OBJECT_ID": "2022-053AY",
    "EPOCH": "2022-07-20T22:00:01.999584",
    "MEAN_MOTION": 15.1441229,
    "ECCENTRICITY": 0.0001336,
    "INCLINATION": 53.2173,
    "RA_OF_ASC_NODE": 349.748,
    "ARG_OF_PERICENTER": 79.5657,
    "MEAN_ANOMALY": 180.135,
    "EPHEMERIS_TYPE": 0,
    "CLASSIFICATION_TYPE": "U",
    "NORAD_CAT_ID": 52702,
    "ELEMENT_SET_NO": 999,
    "REV_AT_EPOCH": 130,
    "BSTAR": -0.062385,
    "MEAN_MOTION_DOT": -0.01073672,
    "MEAN_MOTION_DDOT": 0
},{
    "OBJECT_NAME": "STARLINK-4020",
    "OBJECT_ID": "2022-053AZ",
    "EPOCH": "2022-07-20T22:00:01.999584",
    "MEAN_MOTION": 15.73182628,
    "ECCENTRICITY": 0.0002982,
    "INCLINATION": 53.2161,
    "RA_OF_ASC_NODE": 343.6331,
    "ARG_OF_PERICENTER": 11.5158,
    "MEAN_ANOMALY": 304.8763,
    "EPHEMERIS_TYPE": 0,
    "CLASSIFICATION_TYPE": "U",
    "NORAD_CAT_ID": 52703,
    "ELEMENT_SET_NO": 999,
    "REV_AT_EPOCH": 130,
    "BSTAR": -0.00058596,
    "MEAN_MOTION_DOT": -0.00082023,
    "MEAN_MOTION_DDOT": 0
}]
