STARLINK-3993           
1 52692U 22053AN  22201.91668981 -.01068746  00000+0 -29914-1 0  9990
2 52692  53.2172 346.0255 0001598  45.0010 203.8319 15.38765361  1309
STARLINK-3946           
1 52693U 22053AP  22201.91668981 -.01069599  00000+0 -28513-1 0  9992
2 52693  53.2172 346.0681 0001481  47.3455 229.9455 15.40241989  1300
STARLINK-4072           
1 52694U 22053AQ  22201.91668981 -.01068983  00000+0 -29631-1 0  9991
2 52694  53.2172 346.0342 0001649  41.9046 212.8952 15.39060724  1304
STARLINK-4041           
1 52695U 22053AR  22201.91668981 -.01074985  00000+0 -58773-1 0  9990
2 52695  53.2174 349.6426 0001602  43.7274 264.5333 15.16546074  1300
STARLINK-4025           
1 52696U 22053AS  22201.91668981 -.01069529  00000+0 -29729-1 0  9998
2 52696  53.2174 345.9592 0001465  43.4011 275.3788 15.38978726  1308
STARLINK-4018           
1 52697U 22053AT  22201.91668981 -.01073239  00000+0 -62878-1 0  9994
2 52697  53.2173 349.7470 0001772  43.5003 198.7307 15.14116782  1303
STARLINK-4030           
1 52698U 22053AU  22201.91668981 -.01072067  00000+0 -64397-1 0  9991
2 52698  53.2172 349.7434 0001813  44.4620 144.5339 15.13230310  1301
STARLINK-3987           
1 52699U 22053AV  22201.91668981 -.01062341  00000+0 -14755-1 0  9999
2 52699  53.2171 343.8741 0001394  53.3831  99.1450 15.58959785  1306
STARLINK-4003           
1 52701U 22053AX  22201.91668981 -.00093880  00000+0 -67196-3 0  9993
2 52701  53.2165 343.6382 0003375  11.0206 303.5815 15.73190577  1300
STARLINK-4033           
1 52702U 22053AY  22201.91668981 -.01073672  00000+0 -62385-1 0  9995
2 52702  53.2173 349.7480 0001336  79.5657 180.1350 15.14412290  1307
STARLINK-4020           
1 52703U 22053AZ  22201.91668981 -.00082023  00000+0 -58596-3 0  9996
2 52703  53.2161 343.6331 0002982  11.5158 304.8763 15.73182628  1300
